{
    "links": {
        "self": "http://www.neowsapp.com/rest/v1/neo/3591749?api_key=iIulBulltgU6a56xZRHN4H3l9WmuAYTsLGpBGhQ2"
    },
    "id": "3591749",
    "neo_reference_id": "3591749",
    "name": "(2011 YY28)",
    "designation": "2011 YY28",
    "nasa_jpl_url": "http://ssd.jpl.nasa.gov/sbdb.cgi?sstr=3591749",
    "absolute_magnitude_h": 21.3,
    "estimated_diameter": {
        "kilometers": {
            "estimated_diameter_min": 0.1460679643,
            "estimated_diameter_max": 0.3266178974
        },
        "meters": {
            "estimated_diameter_min": 146.0679642714,
            "estimated_diameter_max": 326.6178974458
        },
        "miles": {
            "estimated_diameter_min": 0.090762397,
            "estimated_diameter_max": 0.2029508896
        },
        "feet": {
            "estimated_diameter_min": 479.2256199,
            "estimated_diameter_max": 1071.581062656
        }
    },
    "is_potentially_hazardous_asteroid": false,
    "close_approach_data": [
        {
            "close_approach_date": "2011-11-07",
            "close_approach_date_full": "2011-Nov-07 06:29",
            "epoch_date_close_approach": 1320647340000,
            "relative_velocity": {
                "kilometers_per_second": "10.2477184022",
                "kilometers_per_hour": "36891.7862479589",
                "miles_per_hour": "22923.1212939053"
            },
            "miss_distance": {
                "astronomical": "0.1877546557",
                "lunar": "73.0365610673",
                "kilometers": "28087696.575303359",
                "miles": "17452885.3508459942"
            },
            "orbiting_body": "Earth"
        }
    ],
    "orbital_data": {
        "orbit_id": "5",
        "orbit_determination_date": "2017-04-06 08:51:39",
        "first_observation_date": "2011-12-28",
        "last_observation_date": "2012-01-03",
        "data_arc_in_days": 6,
        "observations_used": 30,
        "orbit_uncertainty": "9",
        "minimum_orbit_intersection": ".152713",
        "jupiter_tisserand_invariant": "2.702",
        "epoch_osculation": "2455925.5",
        "eccentricity": ".6792412980229804",
        "semi_major_axis": "3.41841058445193",
        "inclination": "7.369002847562805",
        "ascending_node_longitude": "266.3189748976055",
        "orbital_period": "2308.525965194247",
        "perihelion_distance": "1.096484941893306",
        "perihelion_argument": "117.0291971351017",
        "aphelion_distance": "5.740336227010554",
        "perihelion_time": "2455859.064621275045",
        "mean_anomaly": "10.36017645093776",
        "mean_motion": ".1559436651039394",
        "equinox": "J2000",
        "orbit_class": {
            "orbit_class_type": "AMO",
            "orbit_class_description": "Near-Earth asteroid orbits similar to that of 1221 Amor",
            "orbit_class_range": "1.017 AU < q (perihelion) < 1.3 AU"
        }
    },
    "is_sentry_object": false
}